{"fetched_at":"2026-03-29T16:36:15Z","count":15609,"tles":[{"name":"STARLINK-32807","line1":"1 62845U 25019S   26087.69608782  .00029246  00000+0  10676-2 0  9995","line2":"2 62845  42.9999 334.2039 0001771 275.3718  84.6932 15.27595151 65242","category":"Starlink"}]}